start=new Date('2022-11-21T00:00:00.000Z').valueOf();
sats=[{"ECCENTRICITY":"0.00024070","REV_AT_EPOCH":"3389","TIME_SYSTEM":"UTC","FILE":"3665715","COUNTRY_CODE":"US","EPHEMERIS_TYPE":"0","ARG_OF_PERICENTER":"35.4461","OBJECT_ID":"2022-045P","RA_OF_ASC_NODE":"207.7792","OBJECT_TYPE":"PAYLOAD","MEAN_ELEMENT_THEORY":"SGP4","PERIOD":"95.438","OBJECT_NAME":"STARLINK-3851","SEMIMAJOR_AXIS":"6917.896","MEAN_MOTION_DOT":"0.00001609","MEAN_MOTION_DDOT":"0.0000000000000","EPOCH":"2022-11-20T20:49:21.707040","CENTER_NAME":"EARTH","DECAY_DATE":null,"MEAN_MOTION":"15.08834899","SITE":"AFETR","MEAN_ANOMALY":"324.6691","RCS_SIZE":"LARGE","PERIAPSIS":"538.096","GP_ID":"218361711","TLE_LINE1":"1 52344U 22045P   22324.86761235  .00001609  00000-0  11918-3 0  9991","CLASSIFICATION_TYPE":"U","INCLINATION":"53.2168","REF_FRAME":"TEME","APOAPSIS":"541.426","NORAD_CAT_ID":"52344","LAUNCH_DATE":"2022-04-29","TLE_LINE2":"2 52344  53.2168 207.7792 0002407  35.4461 324.6691 15.08834899 33894","ELEMENT_SET_NO":"999","BSTAR":"0.00011918000000"},{"PERIAPSIS":"538.093","TLE_LINE1":"1 52345U 22045Q   22324.88505436  .00004479  00000-0  29929-3 0  9992","CLASSIFICATION_TYPE":"U","GP_ID":"218361462","SITE":"AFETR","MEAN_MOTION":"15.08848198","DECAY_DATE":null,"RCS_SIZE":"LARGE","MEAN_ANOMALY":"321.0439","LAUNCH_DATE":"2022-04-29","NORAD_CAT_ID":"52345","BSTAR":"0.00029929000000","TLE_LINE2":"2 52345  53.2171 207.6977 0002353  39.0722 321.0439 15.08848198 33880","ELEMENT_SET_NO":"999","INCLINATION":"53.2171","APOAPSIS":"541.348","REF_FRAME":"TEME","OBJECT_ID":"2022-045Q","ARG_OF_PERICENTER":"39.0722","EPHEMERIS_TYPE":"0","RA_OF_ASC_NODE":"207.6977","TIME_SYSTEM":"UTC","ECCENTRICITY":"0.00023530","REV_AT_EPOCH":"3388","COUNTRY_CODE":"US","FILE":"3665715","MEAN_MOTION_DOT":"0.00004479","MEAN_MOTION_DDOT":"0.0000000000000","EPOCH":"2022-11-20T21:14:28.696704","SEMIMAJOR_AXIS":"6917.855","OBJECT_NAME":"STARLINK-3852","PERIOD":"95.437","CENTER_NAME":"EARTH","OBJECT_TYPE":"PAYLOAD","MEAN_ELEMENT_THEORY":"SGP4"},{"MEAN_ANOMALY":"327.5895","RCS_SIZE":"LARGE","DECAY_DATE":null,"MEAN_MOTION":"15.08845420","SITE":"AFETR","GP_ID":"218362713","TLE_LINE1":"1 52346U 22045R   22324.86665262  .00001631  00000-0  12054-3 0  9993","CLASSIFICATION_TYPE":"U","PERIAPSIS":"537.793","REF_FRAME":"TEME","APOAPSIS":"541.665","INCLINATION":"53.2162","ELEMENT_SET_NO":"999","TLE_LINE2":"2 52346  53.2162 207.7823 0002799  32.5269 327.5895 15.08845420 33893","BSTAR":"0.00012054000000","NORAD_CAT_ID":"52346","LAUNCH_DATE":"2022-04-29","FILE":"3665715","COUNTRY_CODE":"US","REV_AT_EPOCH":"3389","ECCENTRICITY":"0.00027990","TIME_SYSTEM":"UTC","RA_OF_ASC_NODE":"207.7823","EPHEMERIS_TYPE":"0","ARG_OF_PERICENTER":"32.5269","OBJECT_ID":"2022-045R","MEAN_ELEMENT_THEORY":"SGP4","OBJECT_TYPE":"PAYLOAD","CENTER_NAME":"EARTH","PERIOD":"95.437","SEMIMAJOR_AXIS":"6917.864","OBJECT_NAME":"STARLINK-3812","EPOCH":"2022-11-20T20:47:58.786368","MEAN_MOTION_DDOT":"0.0000000000000","MEAN_MOTION_DOT":"0.00001631"},{"TIME_SYSTEM":"UTC","REV_AT_EPOCH":"3389","ECCENTRICITY":"0.00023840","COUNTRY_CODE":"US","FILE":"3665715","OBJECT_ID":"2022-045S","EPHEMERIS_TYPE":"0","ARG_OF_PERICENTER":"33.4352","RA_OF_ASC_NODE":"207.7351","OBJECT_TYPE":"PAYLOAD","MEAN_ELEMENT_THEORY":"SGP4","SEMIMAJOR_AXIS":"6917.892","OBJECT_NAME":"STARLINK-3826","MEAN_MOTION_DDOT":"0.0000000000000","EPOCH":"2022-11-20T21:03:52.478208","MEAN_MOTION_DOT":"0.00001608","PERIOD":"95.438","CENTER_NAME":"EARTH","MEAN_MOTION":"15.08836069","SITE":"AFETR","DECAY_DATE":null,"MEAN_ANOMALY":"326.6790","RCS_SIZE":"LARGE","PERIAPSIS":"538.108","TLE_LINE1":"1 52347U 22045S   22324.87769072  .00001608  00000-0  11912-3 0  9995","CLASSIFICATION_TYPE":"U","GP_ID":"218362464","INCLINATION":"53.2180","APOAPSIS":"541.407","REF_FRAME":"TEME","LAUNCH_DATE":"2022-04-29","NORAD_CAT_ID":"52347","ELEMENT_SET_NO":"999","TLE_LINE2":"2 52347  53.2180 207.7351 0002384  33.4352 326.6790 15.08836069 33896","BSTAR":"0.00011912000000"},{"MEAN_ELEMENT_THEORY":"SGP4","OBJECT_TYPE":"PAYLOAD","CENTER_NAME":"EARTH","OBJECT_NAME":"STARLINK-3829","SEMIMAJOR_AXIS":"6917.920","MEAN_MOTION_DOT":"0.00000118","MEAN_MOTION_DDOT":"0.0000000000000","EPOCH":"2022-11-20T20:37:24.044448","PERIOD":"95.438","COUNTRY_CODE":"US","FILE":"3665715","TIME_SYSTEM":"UTC","REV_AT_EPOCH":"3389","ECCENTRICITY":"0.00026210","RA_OF_ASC_NODE":"207.8293","OBJECT_ID":"2022-045T","EPHEMERIS_TYPE":"0","ARG_OF_PERICENTER":"29.6447","APOAPSIS":"541.598","REF_FRAME":"TEME","INCLINATION":"53.2170","TLE_LINE2":"2 52348  53.2170 207.8293 0002621  29.6447 330.4693 15.08827052 33895","ELEMENT_SET_NO":"999","BSTAR":"0.00002556000000","LAUNCH_DATE":"2022-04-29","NORAD_CAT_ID":"52348","MEAN_ANOMALY":"330.4693","RCS_SIZE":"LARGE","MEAN_MOTION":"15.08827052","SITE":"AFETR","DECAY_DATE":null,"TLE_LINE1":"1 52348U 22045T   22324.85930607  .00000118  00000-0  25560-4 0  9998","CLASSIFICATION_TYPE":"U","GP_ID":"218361213","PERIAPSIS":"537.972"},{"BSTAR":"0.00021785000000","ELEMENT_SET_NO":"999","TLE_LINE2":"2 52349  53.2165 207.7620 0002873  30.1161 329.9996 15.08837591 33890","NORAD_CAT_ID":"52349","LAUNCH_DATE":"2022-04-29","REF_FRAME":"TEME","APOAPSIS":"541.740","INCLINATION":"53.2165","GP_ID":"218361962","TLE_LINE1":"1 52349U 22045U   22324.87033662  .00003180  00000-0  21785-3 0  9992","CLASSIFICATION_TYPE":"U","PERIAPSIS":"537.765","RCS_SIZE":"LARGE","MEAN_ANOMALY":"329.9996","DECAY_DATE":null,"SITE":"AFETR","MEAN_MOTION":"15.08837591","CENTER_NAME":"EARTH","PERIOD":"95.438","EPOCH":"2022-11-20T20:53:17.083968","MEAN_MOTION_DDOT":"0.0000000000000","MEAN_MOTION_DOT":"0.00003180","SEMIMAJOR_AXIS":"6917.888","OBJECT_NAME":"STARLINK-3819","MEAN_ELEMENT_THEORY":"SGP4","OBJECT_TYPE":"PAYLOAD","RA_OF_ASC_NODE":"207.7620","EPHEMERIS_TYPE":"0","ARG_OF_PERICENTER":"30.1161","OBJECT_ID":"2022-045U","FILE":"3665715","COUNTRY_CODE":"US","ECCENTRICITY":"0.00028730","REV_AT_EPOCH":"3389","TIME_SYSTEM":"UTC"},{"MEAN_MOTION":"15.08826549","SITE":"AFETR","DECAY_DATE":null,"MEAN_ANOMALY":"327.8015","RCS_SIZE":"LARGE","PERIAPSIS":"537.856","CLASSIFICATION_TYPE":"U","TLE_LINE1":"1 52350U 22045V   22324.85561497  .00001569  00000-0  11671-3 0  9996","GP_ID":"218362214","INCLINATION":"53.2151","APOAPSIS":"541.717","REF_FRAME":"TEME","LAUNCH_DATE":"2022-04-29","NORAD_CAT_ID":"52350","ELEMENT_SET_NO":"999","TLE_LINE2":"2 52350  53.2151 207.8380 0002790  32.3148 327.8015 15.08826549 33898","BSTAR":"0.00011671000000","TIME_SYSTEM":"UTC","ECCENTRICITY":"0.00027900","REV_AT_EPOCH":"3389","COUNTRY_CODE":"US","FILE":"3665715","OBJECT_ID":"2022-045V","ARG_OF_PERICENTER":"32.3148","EPHEMERIS_TYPE":"0","RA_OF_ASC_NODE":"207.8380","OBJECT_TYPE":"PAYLOAD","MEAN_ELEMENT_THEORY":"SGP4","SEMIMAJOR_AXIS":"6917.922","OBJECT_NAME":"STARLINK-3754","EPOCH":"2022-11-20T20:32:05.133408","MEAN_MOTION_DDOT":"0.0000000000000","MEAN_MOTION_DOT":"0.00001569","PERIOD":"95.438","CENTER_NAME":"EARTH"},{"OBJECT_TYPE":"PAYLOAD","MEAN_ELEMENT_THEORY":"SGP4","MEAN_MOTION_DDOT":"0.0000000000000","EPOCH":"2022-11-20T21:07:19.034688","MEAN_MOTION_DOT":"0.00017670","SEMIMAJOR_AXIS":"6717.870","OBJECT_NAME":"STARLINK-3816","PERIOD":"91.329","CENTER_NAME":"EARTH","TIME_SYSTEM":"UTC","ECCENTRICITY":"0.00021410","REV_AT_EPOCH":"3412","COUNTRY_CODE":"US","FILE":"3665715","OBJECT_ID":"2022-045W","EPHEMERIS_TYPE":"0","ARG_OF_PERICENTER":"151.8586","RA_OF_ASC_NODE":"191.6356","INCLINATION":"53.2166","APOAPSIS":"341.174","REF_FRAME":"TEME","LAUNCH_DATE":"2022-04-29","NORAD_CAT_ID":"52351","BSTAR":"0.00011177000000","TLE_LINE2":"2 52351  53.2166 191.6356 0002141 151.8586 208.2552 15.76722723 34120","ELEMENT_SET_NO":"999","SITE":"AFETR","MEAN_MOTION":"15.76722723","DECAY_DATE":null,"RCS_SIZE":"LARGE","MEAN_ANOMALY":"208.2552","PERIAPSIS":"338.297","TLE_LINE1":"1 52351U 22045W   22324.88008142  .00017670  00000-0  11177-3 0  9994","CLASSIFICATION_TYPE":"U","GP_ID":"218362964"},{"RA_OF_ASC_NODE":"207.8901","OBJECT_ID":"2022-045X","EPHEMERIS_TYPE":"0","ARG_OF_PERICENTER":"30.0310","COUNTRY_CODE":"US","FILE":"3665715","TIME_SYSTEM":"UTC","ECCENTRICITY":"0.00027540","REV_AT_EPOCH":"3389","CENTER_NAME":"EARTH","MEAN_MOTION_DDOT":"0.0000000000000","MEAN_MOTION_DOT":"0.00001142","EPOCH":"2022-11-20T20:16:11.064000","OBJECT_NAME":"STARLINK-3838","SEMIMAJOR_AXIS":"6917.894","PERIOD":"95.438","MEAN_ELEMENT_THEORY":"SGP4","OBJECT_TYPE":"PAYLOAD","TLE_LINE1":"1 52352U 22045X   22324.84457250  .00001142  00000-0  89861-4 0  9992","CLASSIFICATION_TYPE":"U","GP_ID":"218361712","PERIAPSIS":"537.854","RCS_SIZE":"LARGE","MEAN_ANOMALY":"330.0840","SITE":"AFETR","MEAN_MOTION":"15.08835443","DECAY_DATE":null,"BSTAR":"0.00008986100000","ELEMENT_SET_NO":"999","TLE_LINE2":"2 52352  53.2164 207.8901 0002754  30.0310 330.0840 15.08835443 33894","LAUNCH_DATE":"2022-04-29","NORAD_CAT_ID":"52352","APOAPSIS":"541.665","REF_FRAME":"TEME","INCLINATION":"53.2164"},{"GP_ID":"218361463","TLE_LINE1":"1 52353U 22045Y   22324.85193106  .00000917  00000-0  75705-4 0  9992","CLASSIFICATION_TYPE":"U","PERIAPSIS":"537.817","RCS_SIZE":"LARGE","MEAN_ANOMALY":"327.5878","DECAY_DATE":null,"SITE":"AFETR","MEAN_MOTION":"15.08841796","BSTAR":"0.00007570500000","ELEMENT_SET_NO":"999","TLE_LINE2":"2 52353  53.2159 207.8565 0002780  32.5285 327.5878 15.08841796 33892","NORAD_CAT_ID":"52353","LAUNCH_DATE":"2022-04-29","REF_FRAME":"TEME","APOAPSIS":"541.663","INCLINATION":"53.2159","RA_OF_ASC_NODE":"207.8565","EPHEMERIS_TYPE":"0","ARG_OF_PERICENTER":"32.5285","OBJECT_ID":"2022-045Y","FILE":"3665715","COUNTRY_CODE":"US","ECCENTRICITY":"0.00027800","REV_AT_EPOCH":"3389","TIME_SYSTEM":"UTC","CENTER_NAME":"EARTH","PERIOD":"95.437","MEAN_MOTION_DDOT":"0.0000000000000","EPOCH":"2022-11-20T20:26:46.843584","MEAN_MOTION_DOT":"0.00000917","OBJECT_NAME":"STARLINK-3807","SEMIMAJOR_AXIS":"6917.875","MEAN_ELEMENT_THEORY":"SGP4","OBJECT_TYPE":"PAYLOAD"}];
